TRANSPORTER-15CM        
1 66749U 25276CM  25361.17221106  .00008865  00000+0  43987-3 0  9991
2 66749  97.4392  72.6963 0002250 174.5091 185.6167 15.17935007  4317
TRANSPORTER-15CN        
1 66750U 25276CN  25361.16864550  .00113053  00000+0  54383-2 0  9995
2 66750  97.4397  72.7146 0005547 155.6351 204.5146 15.18273356  4310
ICEYE-X58               
1 66751U 25276CP  25361.17278308  .00006112  00000+0  30522-3 0  9994
2 66751  97.4405  72.7043 0002739 189.0397 171.0788 15.17841622  4314
ICEYE-X59               
1 66752U 25276CQ  25361.17638519  .00009539  00000+0  47693-3 0  9992
2 66752  97.4398  72.6988 0002153 213.3365 146.7733 15.17648876  4314
ICEYE-X60               
1 66753U 25276CR  25361.18076784  .00005705  00000+0  28855-3 0  9994
2 66753  97.4400  72.6893 0001196 240.9325 119.1788 15.17421713  4315
ICEYE-X61               
1 66754U 25276CS  25361.17179008  .00006610  00000+0  32937-3 0  9999
2 66754  97.4398  72.7002 0002685 178.2405 181.8838 15.17885228  4318
ICEYE-X62               
1 66755U 25276CT  25361.11067759  .00006472  00000+0  32467-3 0  9997
2 66755  97.4400  72.6285 0001312 203.2897 156.8277 15.17662695  4304
TRANSPORTER-15CU        
1 66756U 25276CU  25361.17043338  .00007856  00000+0  38958-3 0  9999
2 66756  97.4406  72.7062 0001874 150.3930 209.7411 15.17994996  4319
TRANSPORTER-15CV        
1 66757U 25276CV  25360.97096757 -.00202306  00000+0 -10278-1 0  9992
2 66757  97.4382  72.5157 0003958 309.2672  50.8210 15.17836762  4283
TRANSPORTER-15CW        
1 66758U 25276CW  25361.16839399  .00008456  00000+0  41747-3 0  9997
2 66758  97.4385  72.7010 0001574 135.9855 224.1504 15.18129232  4310
TRANSPORTER-15CX        
1 66759U 25276CX  25361.16635124 -.00023983  00000+0 -11738-2 0  9998
2 66759  97.4377  72.7027 0000361 177.5318 182.5918 15.18220044  4318
TRANSPORTER-15CY        
1 66760U 25276CY  25361.16604921  .00011935  00000+0  58556-3 0  9993
2 66760  97.4391  72.7060 0001738 112.5269 247.6149 15.18249139  4311
