CCSDS_OMM_VERS = 2.0
CREATION_DATE  = 
ORIGINATOR     = 

OBJECT_NAME    = TRANSPORTER-15CM
OBJECT_ID      = 2025-276CM
CENTER_NAME    = EARTH
REF_FRAME      = TEME
TIME_SYSTEM    = UTC
MEAN_ELEMENT_THEORY = SGP/SGP4

EPOCH          = 2025-12-27T04:07:59.035584
MEAN_MOTION    = 15.17935007
ECCENTRICITY   = .000225
INCLINATION    = 97.4392
RA_OF_ASC_NODE = 72.6963
ARG_OF_PERICENTER = 174.5091
MEAN_ANOMALY   = 185.6167

EPHEMERIS_TYPE = 0
CLASSIFICATION_TYPE = U
NORAD_CAT_ID   = 66749
ELEMENT_SET_NO = 999
REV_AT_EPOCH   = 431
BSTAR          = .43987E-3
MEAN_MOTION_DOT = .8865E-4
MEAN_MOTION_DDOT = 0

CCSDS_OMM_VERS = 2.0
CREATION_DATE  = 
ORIGINATOR     = 

OBJECT_NAME    = TRANSPORTER-15CN
OBJECT_ID      = 2025-276CN
CENTER_NAME    = EARTH
REF_FRAME      = TEME
TIME_SYSTEM    = UTC
MEAN_ELEMENT_THEORY = SGP/SGP4

EPOCH          = 2025-12-27T04:02:50.971200
MEAN_MOTION    = 15.18273356
ECCENTRICITY   = .0005547
INCLINATION    = 97.4397
RA_OF_ASC_NODE = 72.7146
ARG_OF_PERICENTER = 155.6351
MEAN_ANOMALY   = 204.5146

EPHEMERIS_TYPE = 0
CLASSIFICATION_TYPE = U
NORAD_CAT_ID   = 66750
ELEMENT_SET_NO = 999
REV_AT_EPOCH   = 431
BSTAR          = .54383E-2
MEAN_MOTION_DOT = .113053E-2
MEAN_MOTION_DDOT = 0

CCSDS_OMM_VERS = 2.0
CREATION_DATE  = 
ORIGINATOR     = 

OBJECT_NAME    = ICEYE-X58
OBJECT_ID      = 2025-276CP
CENTER_NAME    = EARTH
REF_FRAME      = TEME
TIME_SYSTEM    = UTC
MEAN_ELEMENT_THEORY = SGP/SGP4

EPOCH          = 2025-12-27T04:08:48.458112
MEAN_MOTION    = 15.17841622
ECCENTRICITY   = .0002739
INCLINATION    = 97.4405
RA_OF_ASC_NODE = 72.7043
ARG_OF_PERICENTER = 189.0397
MEAN_ANOMALY   = 171.0788

EPHEMERIS_TYPE = 0
CLASSIFICATION_TYPE = U
NORAD_CAT_ID   = 66751
ELEMENT_SET_NO = 999
REV_AT_EPOCH   = 431
BSTAR          = .30522E-3
MEAN_MOTION_DOT = .6112E-4
MEAN_MOTION_DDOT = 0

CCSDS_OMM_VERS = 2.0
CREATION_DATE  = 
ORIGINATOR     = 

OBJECT_NAME    = ICEYE-X59
OBJECT_ID      = 2025-276CQ
CENTER_NAME    = EARTH
REF_FRAME      = TEME
TIME_SYSTEM    = UTC
MEAN_ELEMENT_THEORY = SGP/SGP4

EPOCH          = 2025-12-27T04:13:59.680416
MEAN_MOTION    = 15.17648876
ECCENTRICITY   = .0002153
INCLINATION    = 97.4398
RA_OF_ASC_NODE = 72.6988
ARG_OF_PERICENTER = 213.3365
MEAN_ANOMALY   = 146.7733

EPHEMERIS_TYPE = 0
CLASSIFICATION_TYPE = U
NORAD_CAT_ID   = 66752
ELEMENT_SET_NO = 999
REV_AT_EPOCH   = 431
BSTAR          = .47693E-3
MEAN_MOTION_DOT = .9539E-4
MEAN_MOTION_DDOT = 0

CCSDS_OMM_VERS = 2.0
CREATION_DATE  = 
ORIGINATOR     = 

OBJECT_NAME    = ICEYE-X60
OBJECT_ID      = 2025-276CR
CENTER_NAME    = EARTH
REF_FRAME      = TEME
TIME_SYSTEM    = UTC
MEAN_ELEMENT_THEORY = SGP/SGP4

EPOCH          = 2025-12-27T04:20:18.341376
MEAN_MOTION    = 15.17421713
ECCENTRICITY   = .0001196
INCLINATION    = 97.4400
RA_OF_ASC_NODE = 72.6893
ARG_OF_PERICENTER = 240.9325
MEAN_ANOMALY   = 119.1788

EPHEMERIS_TYPE = 0
CLASSIFICATION_TYPE = U
NORAD_CAT_ID   = 66753
ELEMENT_SET_NO = 999
REV_AT_EPOCH   = 431
BSTAR          = .28855E-3
MEAN_MOTION_DOT = .5705E-4
MEAN_MOTION_DDOT = 0

CCSDS_OMM_VERS = 2.0
CREATION_DATE  = 
ORIGINATOR     = 

OBJECT_NAME    = ICEYE-X61
OBJECT_ID      = 2025-276CS
CENTER_NAME    = EARTH
REF_FRAME      = TEME
TIME_SYSTEM    = UTC
MEAN_ELEMENT_THEORY = SGP/SGP4

EPOCH          = 2025-12-27T04:07:22.662912
MEAN_MOTION    = 15.17885228
ECCENTRICITY   = .0002685
INCLINATION    = 97.4398
RA_OF_ASC_NODE = 72.7002
ARG_OF_PERICENTER = 178.2405
MEAN_ANOMALY   = 181.8838

EPHEMERIS_TYPE = 0
CLASSIFICATION_TYPE = U
NORAD_CAT_ID   = 66754
ELEMENT_SET_NO = 999
REV_AT_EPOCH   = 431
BSTAR          = .32937E-3
MEAN_MOTION_DOT = .661E-4
MEAN_MOTION_DDOT = 0

CCSDS_OMM_VERS = 2.0
CREATION_DATE  = 
ORIGINATOR     = 

OBJECT_NAME    = ICEYE-X62
OBJECT_ID      = 2025-276CT
CENTER_NAME    = EARTH
REF_FRAME      = TEME
TIME_SYSTEM    = UTC
MEAN_ELEMENT_THEORY = SGP/SGP4

EPOCH          = 2025-12-27T02:39:22.543776
MEAN_MOTION    = 15.17662695
ECCENTRICITY   = .0001312
INCLINATION    = 97.4400
RA_OF_ASC_NODE = 72.6285
ARG_OF_PERICENTER = 203.2897
MEAN_ANOMALY   = 156.8277

EPHEMERIS_TYPE = 0
CLASSIFICATION_TYPE = U
NORAD_CAT_ID   = 66755
ELEMENT_SET_NO = 999
REV_AT_EPOCH   = 430
BSTAR          = .32467E-3
MEAN_MOTION_DOT = .6472E-4
MEAN_MOTION_DDOT = 0

CCSDS_OMM_VERS = 2.0
CREATION_DATE  = 
ORIGINATOR     = 

OBJECT_NAME    = TRANSPORTER-15CU
OBJECT_ID      = 2025-276CU
CENTER_NAME    = EARTH
REF_FRAME      = TEME
TIME_SYSTEM    = UTC
MEAN_ELEMENT_THEORY = SGP/SGP4

EPOCH          = 2025-12-27T04:05:25.444032
MEAN_MOTION    = 15.17994996
ECCENTRICITY   = .0001874
INCLINATION    = 97.4406
RA_OF_ASC_NODE = 72.7062
ARG_OF_PERICENTER = 150.3930
MEAN_ANOMALY   = 209.7411

EPHEMERIS_TYPE = 0
CLASSIFICATION_TYPE = U
NORAD_CAT_ID   = 66756
ELEMENT_SET_NO = 999
REV_AT_EPOCH   = 431
BSTAR          = .38958E-3
MEAN_MOTION_DOT = .7856E-4
MEAN_MOTION_DDOT = 0

CCSDS_OMM_VERS = 2.0
CREATION_DATE  = 
ORIGINATOR     = 

OBJECT_NAME    = TRANSPORTER-15CV
OBJECT_ID      = 2025-276CV
CENTER_NAME    = EARTH
REF_FRAME      = TEME
TIME_SYSTEM    = UTC
MEAN_ELEMENT_THEORY = SGP/SGP4

EPOCH          = 2025-12-26T23:18:11.598048
MEAN_MOTION    = 15.17836762
ECCENTRICITY   = .00039586
INCLINATION    = 97.4382
RA_OF_ASC_NODE = 72.5157
ARG_OF_PERICENTER = 309.2672
MEAN_ANOMALY   = 50.8210

EPHEMERIS_TYPE = 0
CLASSIFICATION_TYPE = U
NORAD_CAT_ID   = 66757
ELEMENT_SET_NO = 999
REV_AT_EPOCH   = 428
BSTAR          = -.10277728E-1
MEAN_MOTION_DOT = -.202306E-2
MEAN_MOTION_DDOT = 0

CCSDS_OMM_VERS = 2.0
CREATION_DATE  = 
ORIGINATOR     = 

OBJECT_NAME    = TRANSPORTER-15CW
OBJECT_ID      = 2025-276CW
CENTER_NAME    = EARTH
REF_FRAME      = TEME
TIME_SYSTEM    = UTC
MEAN_ELEMENT_THEORY = SGP/SGP4

EPOCH          = 2025-12-27T04:02:29.240736
MEAN_MOTION    = 15.18129232
ECCENTRICITY   = .0001574
INCLINATION    = 97.4385
RA_OF_ASC_NODE = 72.7010
ARG_OF_PERICENTER = 135.9855
MEAN_ANOMALY   = 224.1504

EPHEMERIS_TYPE = 0
CLASSIFICATION_TYPE = U
NORAD_CAT_ID   = 66758
ELEMENT_SET_NO = 999
REV_AT_EPOCH   = 431
BSTAR          = .41747E-3
MEAN_MOTION_DOT = .8456E-4
MEAN_MOTION_DDOT = 0

CCSDS_OMM_VERS = 2.0
CREATION_DATE  = 
ORIGINATOR     = 

OBJECT_NAME    = TRANSPORTER-15CX
OBJECT_ID      = 2025-276CX
CENTER_NAME    = EARTH
REF_FRAME      = TEME
TIME_SYSTEM    = UTC
MEAN_ELEMENT_THEORY = SGP/SGP4

EPOCH          = 2025-12-27T03:59:32.747136
MEAN_MOTION    = 15.18220044
ECCENTRICITY   = .0000361
INCLINATION    = 97.4377
RA_OF_ASC_NODE = 72.7027
ARG_OF_PERICENTER = 177.5318
MEAN_ANOMALY   = 182.5918

EPHEMERIS_TYPE = 0
CLASSIFICATION_TYPE = U
NORAD_CAT_ID   = 66759
ELEMENT_SET_NO = 999
REV_AT_EPOCH   = 431
BSTAR          = -.11738E-2
MEAN_MOTION_DOT = -.23983E-3
MEAN_MOTION_DDOT = 0

CCSDS_OMM_VERS = 2.0
CREATION_DATE  = 
ORIGINATOR     = 

OBJECT_NAME    = TRANSPORTER-15CY
OBJECT_ID      = 2025-276CY
CENTER_NAME    = EARTH
REF_FRAME      = TEME
TIME_SYSTEM    = UTC
MEAN_ELEMENT_THEORY = SGP/SGP4

EPOCH          = 2025-12-27T03:59:06.651744
MEAN_MOTION    = 15.18249139
ECCENTRICITY   = .0001738
INCLINATION    = 97.4391
RA_OF_ASC_NODE = 72.7060
ARG_OF_PERICENTER = 112.5269
MEAN_ANOMALY   = 247.6149

EPHEMERIS_TYPE = 0
CLASSIFICATION_TYPE = U
NORAD_CAT_ID   = 66760
ELEMENT_SET_NO = 999
REV_AT_EPOCH   = 431
BSTAR          = .58556E-3
MEAN_MOTION_DOT = .11935E-3
MEAN_MOTION_DDOT = 0

